OSCAR 7 (AO-7)          
1 07530U 74089B   20340.89133153 -.00000034  00000-0  72277-4 0  9992
2 07530 101.8268 309.8239 0012471  34.7672  21.0913 12.53646326107474
UOSAT 2 (UO-11)         
1 14781U 84021B   20340.91694561  .00000244  00000-0  35947-4 0  9998
2 14781  97.5895 344.3553 0008542   8.2234 351.9119 14.83221370957248
LUSAT (LO-19)           
1 20442U 90005G   20340.58455584  .00000028  00000-0  26588-4 0  9992
2 20442  98.7150 288.5801 0012097  16.5327 343.6249 14.32969291613062
EYESAT A (AO-27)        
1 22825U 93061C   20340.92713359  .00000005  00000-0  19877-4 0  9997
2 22825  98.9249 347.7160 0007582 234.0541 125.9938 14.30099835418328
ITAMSAT (IO-26)         
1 22826U 93061D   20340.94322778  .00000014  00000-0  23305-4 0  9992
2 22826  98.9190 347.6605 0008260 221.0120 139.0442 14.30437043418569
RADIO ROSTO (RS-15)     
1 23439U 94085A   20340.91509366 -.00000037  00000-0  15882-3 0  9993
2 23439  64.8183 328.9652 0154302  10.0774 350.3186 11.27569535 68512
JAS-2 (FO-29)           
1 24278U 96046B   20340.86449768 -.00000001  00000-0  38840-4 0  9998
2 24278  98.5884  68.3088 0349291 291.1073  65.3063 13.53101037200066
TECHSAT 1B (GO-32)      
1 25397U 98043D   20340.57630437  .00000013  00000-0  25028-4 0  9999
2 25397  98.7483 280.9068 0000418 336.3319  23.7840 14.23696341163903
ISS (ZARYA)             
1 25544U 98067A   20341.58957527  .00002681  00000-0  56490-4 0  9993
2 25544  51.6447 215.4187 0001847 105.6302 338.2143 15.49159226258748
PCSAT (NO-44)           
1 26931U 01043C   20341.50280011  .00000006  00000-0  33845-4 0  9999
2 26931  67.0526  58.3958 0007206 274.2989  85.7289 14.30597786  1755
SAUDISAT 1C (SO-50)     
1 27607U 02058C   20341.09686843  .00000087  00000-0  32919-4 0  9994
2 27607  64.5547 209.5770 0030383 110.7462 249.6901 14.75687712966182
CUTE-1 (CO-55)          
1 27844U 03031E   20341.43942898  .00000094  00000-0  61936-4 0  9991
2 27844  98.6819 346.5795 0008830 278.6758  81.3419 14.22273636904587
CUBESAT XI-IV (CO-57)   
1 27848U 03031J   20341.44590147  .00000067  00000-0  50348-4 0  9997
2 27848  98.6881 347.1532 0008770 292.9297  67.0954 14.21855696904414
MOZHAYETS 4 (RS-22)     
1 27939U 03042A   20341.41805574  .00000297  00000-0  61741-4 0  9994
2 27939  98.1150 114.2140 0013325 164.5756 195.5874 14.66918293919228
CUBESAT XI-V            
1 28895U 05043F   20341.12491760  .00000275  00000-0  61462-4 0  9991
2 28895  98.0332 112.9290 0018065  99.4443 260.8803 14.63836606805953
CUTE-1.7+APD II (CO-65) 
1 32785U 08021C   20341.48876943  .00000570  00000-0  66822-4 0  9995
2 32785  97.5905 322.1019 0011529 285.0812  74.9129 14.88579291683535
DELFI-C3 (DO-64)        
1 32789U 08021G   20341.40067504  .00003334  00000-0  21884-3 0  9995
2 32789  97.3993  18.0501 0013416  87.2839 272.9925 15.08231749687825
SEEDS II (CO-66)        
1 32791U 08021J   20340.72082405  .00000971  00000-0  10304-3 0  9998
2 32791  97.5541 327.4369 0011794 250.0357 109.9592 14.91200063683988
YUBILEINY (RS-30)       
1 32953U 08025A   20341.47049927  .00000028  00000-0  12906-3 0  9990
2 32953  82.5019 170.9488 0019733  39.2437 321.0072 12.43099041569005
KKS-1 (KISEKI)          
1 33499U 09002H   20340.87839839  .00000234  00000-0  42257-4 0  9996
2 33499  98.2924 200.2079 0008040 303.5102  56.5338 14.75589928637868
SWISSCUBE               
1 35932U 09051B   20340.76439219  .00000253  00000-0  68037-4 0  9995
2 35932  98.6076 168.5878 0006986 329.0289  31.0495 14.56458785594761
BEESAT-1                
1 35933U 09051C   20340.53221254  .00000213  00000-0  58870-4 0  9999
2 35933  98.6056 170.2102 0005456 346.3821  13.7228 14.56526127594807
ITUPSAT1                
1 35935U 09051E   20341.04002088  .00000191  00000-0  54930-4 0  9998
2 35935  98.6162 170.9082 0007708 341.7176  18.3742 14.55665971594661
XIWANG-1 (HOPE-1)       
1 36122U 09072B   20340.64306484 -.00000028  00000-0  37047-4 0  9992
2 36122 100.1093 323.5480 0007308 184.1549 175.9505 13.16357862527395
JUGNU                   
1 37839U 11058B   20340.65861808  .00000316  00000-0  26538-4 0  9994
2 37839  19.9625 324.4980 0019150 115.6192  38.6807 14.12697113473028
SRMSAT                  
1 37841U 11058D   20340.84122140  .00000307  00000-0  23640-4 0  9998
2 37841  19.9735  31.2601 0011841 327.8381 187.7964 14.10679670472364
M-CUBED & EXP-1 PRIME   
1 37855U 11061F   20341.05715021  .00003927  00000-0  19742-3 0  9995
2 37855 101.7263 158.1488 0169359 285.4958  72.7609 15.06848339497513
STRAND-1                
1 39090U 13009E   20341.00786205  .00000058  00000-0  35316-4 0  9997
2 39090  98.4388 181.6004 0009975 129.8368 230.3697 14.35157678407312
SOMP                    
1 39134U 13015E   20340.69135552  .00004390  00000-0  20147-3 0  9998
2 39134  64.8648  82.1390 0017188 220.4609 139.5242 15.21663505421725
BEESAT-3                
1 39135U 13015F   20340.62334849  .00003543  00000-0  17873-3 0  9993
2 39135  64.8682 108.4588 0022025 212.6655 147.3111 15.18655876421208
BEESAT-2                
1 39136U 13015G   20340.67329318  .00003228  00000-0  16544-3 0  9998
2 39136  64.8774 113.9103 0032743 264.5630  95.1761 15.18048300421100
ZACUBE-1 (TSHEPISOSAT)  
1 39417U 13066B   20340.93955526  .00000579  00000-0  78257-4 0  9997
2 39417  97.5762 329.5250 0060221  75.9480 284.8418 14.81373008380429
GOMX-1                  
1 39430U 13066Q   20341.41268464  .00000692  00000-0  13348-3 0  9999
2 39430  97.8049 269.6544 0151368   3.4129 356.8053 14.59492962374888
CUBEBUG-2 (LO-74)       
1 39440U 13066AA  20340.99746477  .00000414  00000-0  63949-4 0  9992
2 39440  97.6517 314.2077 0080822 142.4813 218.2077 14.76108362379086
FUNCUBE-1 (AO-73)       
1 39444U 13066AE  20341.44520766  .00000678  00000-0  88735-4 0  9990
2 39444  97.5687 332.3151 0059218  65.9141 294.8253 14.82250186379433
UWE-3                   
1 39446U 13066AG  20340.89552473  .00000477  00000-0  69149-4 0  9995
2 39446  97.6156 321.2171 0071200 110.1098 250.7794 14.78641688377902
SPROUT                  
1 39770U 14029E   20341.24422065  .00001821  00000-0  20416-3 0  9995
2 39770  97.9090  86.9167 0010145 120.4383 239.7846 14.88039857354601
UNISAT-6                
1 40012U 14033C   20341.47263112  .00000383  00000-0  63823-4 0  9994
2 40012  97.6893 187.8459 0058523 163.0696 197.2484 14.74201813347760
DUCHIFAT-1              
1 40021U 14033M   20340.88319850  .00001027  00000-0  10942-3 0  9998
2 40021  97.9555 273.2652 0014295  82.6247 277.6595 14.91084411351436
QB50P1                  
1 40025U 14033R   20341.06287122  .00000693  00000-0  79099-4 0  9996
2 40025  97.9224 265.3871 0013848  93.9283 266.3517 14.89264704351145
NUDT-PHONESAT           
1 40900U 15049B   20341.50632873  .00005834  00000-0  23606-3 0  9996
2 40900  97.4272 351.0222 0014135  97.2933  54.7585 15.25000614289409
ZDPS 2A                 
1 40901U 15049C   20341.53436389  .00003171  00000-0  15546-3 0  9990
2 40901  97.4628 345.0273 0014465 128.7511 348.8275 15.18773028288682
ZDPS 2B                 
1 40902U 15049D   20341.52410024  .00003152  00000-0  15451-3 0  9992
2 40902  97.4630 342.2929 0014396 126.1025  32.6404 15.18779304288650
XW-2A                   
1 40903U 15049E   20341.44809047  .00005016  00000-0  11190-3 0  9998
2 40903  97.2652  30.3687 0012919   6.3772 107.9515 15.43942755293000
KAITUO 1A               
1 40904U 15049F   20341.50118478  .00000996  00000-0  55383-4 0  9992
2 40904  97.4818 340.0062 0015262 141.1017  10.3965 15.15900697288300
2015-049G               
1 40905U 15049G   20341.51355799  .00001096  00000-0  62515-4 0  9990
2 40905  97.4923 337.1522 0016552 140.0894 340.6522 15.14734420288126
XW-2C                   
1 40906U 15049H   20341.50473707  .00001478  00000-0  79457-4 0  9997
2 40906  97.4817 340.3910 0015674 131.8241 347.4719 15.16338252288324
XW-2D                   
1 40907U 15049J   20341.53608925  .00002090  00000-0  11010-3 0  9994
2 40907  97.4807 340.1610 0015269 128.7540 348.2128 15.16608824288357
LILACSAT-2              
1 40908U 15049K   20341.53900198  .00001214  00000-0  69895-4 0  9994
2 40908  97.4977 338.2808 0016665 141.3200 334.0054 15.14203425288030
XW-2F                   
1 40910U 15049M   20341.53370480  .00002900  00000-0  14401-3 0  9997
2 40910  97.4708 342.9839 0015828 117.5148   0.9752 15.18375287288446
XW-2B                   
1 40911U 15049N   20341.52884859  .00002063  00000-0  10896-3 0  9991
2 40911  97.4807 340.8516 0015141 129.6953 348.4699 15.16531130288249
KAITUO 1B               
1 40912U 15049P   20341.52426443  .00003065  00000-0  14167-3 0  9991
2 40912  97.4470 347.2672 0016275  95.7510  56.0956 15.20822594288869
TIANWANG 1C (TW-1C)     
1 40926U 15051B   20341.42954399  .00113567  00000-0  62703-3 0  9992
2 40926  97.0573  35.2139 0004390 141.7182 338.2697 15.79310113294012
TIANWANG 1A (TW-1A)     
1 40928U 15051D   20341.58355119  .00007747  00000-0  17243-3 0  9997
2 40928  97.0947   5.1930 0008078 281.9441 235.4800 15.43868562291913
LAPAN-A2                
1 40931U 15052B   20340.43201023  .00000712  00000-0  10157-4 0  9992
2 40931   5.9978 196.0372 0012648 179.9787 180.0327 14.76653481280572
E-ST@R-II               
1 41459U 16025D   20341.53646447  .00002957  00000-0  14999-3 0  9994
2 41459  98.1199 100.7157 0162449 352.9770   6.9162 15.07065250253355
AAUSAT 4                
1 41460U 16025E   20341.39790440  .00004323  00000-0  20970-3 0  9998
2 41460  98.1204 103.5543 0150465 340.0186  19.5185 15.09648766253578
NUSAT-1 (FRESCO)        
1 41557U 16033B   20341.52100125  .00003829  00000-0  14017-3 0  9999
2 41557  97.4004  70.6444 0012761 192.3912 178.4132 15.28579010252055
BEESAT-4                
1 41619U 16040W   20341.16254105  .00003900  00000-0  16089-3 0  9995
2 41619  97.2982  36.4710 0009355 298.1863  61.8429 15.24599552235557
